OBJECT_NAME,OBJECT_ID,EPOCH,MEAN_MOTION,ECCENTRICITY,INCLINATION,RA_OF_ASC_NODE,ARG_OF_PERICENTER,MEAN_ANOMALY,EPHEMERIS_TYPE,CLASSIFICATION_TYPE,NORAD_CAT_ID,ELEMENT_SET_NO,REV_AT_EPOCH,BSTAR,MEAN_MOTION_DOT,MEAN_MOTION_DDOT
STARLINK-35732,2025-294H,2026-06-09T22:21:51.219648,15.27609468,.00012243,43.0018,237.3863,271.5273,88.5438,0,U,67037,999,2890,.54659358E-3,.14823E-3,0
STARLINK-35775,2025-294J,2026-06-10T11:39:18.694656,15.27597081,.00003801,43.0062,233.8017,220.6209,139.4614,0,U,67038,999,2900,.7903735E-3,.21562E-3,0
STARLINK-35705,2025-294K,2026-06-10T11:46:42.686112,15.27602849,.00003574,42.9993,233.8313,228.3614,131.7208,0,U,67039,999,2899,.91372094E-3,.24984E-3,0
STARLINK-35786,2025-294L,2026-06-09T22:18:09.786816,15.27601388,.00012651,43.0047,237.3705,285.0196,75.0516,0,U,67040,999,2890,.52841666E-3,.14316E-3,0
STARLINK-35765,2025-294M,2026-06-10T12:08:54.930048,15.27583469,.00014456,43.0008,233.9550,273.3434,86.7252,0,U,67041,999,2899,.54381852E-3,.14734E-3,0
STARLINK-35773,2025-294N,2026-06-10T12:05:13.012512,15.27595152,.00006579,42.9996,233.9307,288.4924,71.5856,0,U,67042,999,2899,.64637988E-3,.17575E-3,0
STARLINK-35901,2025-294P,2026-06-10T13:50:28.097376,15.27590381,.0001423,43.0009,233.6259,280.4689,79.6002,0,U,67043,999,2900,.72802081E-3,.19832E-3,0
STARLINK-35884,2025-294Q,2026-06-10T11:20:48.479712,15.27598359,.00013653,43.0003,233.7048,264.7833,95.2863,0,U,67044,999,2899,.82930397E-3,.22641E-3,0
STARLINK-35891,2025-294R,2026-06-09T22:27:24.629472,15.27616453,.00014099,43.0009,237.4111,279.0787,80.9905,0,U,67045,999,2890,.60249331E-3,.16372E-3,0
STARLINK-35721,2025-294S,2026-06-09T05:00:35.289792,15.27602914,.0001154,43.0003,241.4170,266.3689,93.7030,0,U,67046,999,2879,.51131E-3,.13844E-3,0
STARLINK-35779,2025-294T,2026-06-10T11:54:06.839136,15.27597267,.00006962,43.0080,233.8788,254.1895,105.8880,0,U,67047,999,2899,.58366337E-3,.15842E-3,0
STARLINK-35905,2025-294U,2026-06-10T12:10:45.703488,15.27593507,.00008921,43.0010,233.9658,142.3119,217.7796,0,U,67048,999,2899,.45580985E-3,.12307E-3,0
STARLINK-35877,2025-294V,2026-06-10T00:00:04.000320,15.27586036,.00014904,43.0029,237.0190,272.6951,95.7069,0,U,67049,999,583,.3218851E-3,.8607E-4,0
STARLINK-36078,2025-294W,2026-06-10T11:37:27.220512,15.27598270,.00011099,43.0023,233.7837,279.6396,80.4330,0,U,67050,999,2899,.60974269E-3,.16564E-3,0
STARLINK-35706,2025-294X,2026-06-10T12:03:21.566016,15.27592439,.00013665,42.9998,233.9197,268.3997,91.6699,0,U,67051,999,2899,.33770514E-3,.9046E-4,0
STARLINK-35720,2025-294Y,2026-06-10T11:52:15.445344,15.27591593,.000129,42.9988,233.8597,279.8615,80.2091,0,U,67052,999,2899,.68620731E-3,.18675E-3,0
STARLINK-35739,2025-294Z,2026-06-10T12:18:09.764928,15.27612473,.0000486,43.0130,233.9987,51.6232,308.4663,0,U,67053,999,2899,.67606489E-3,.18406E-3,0
STARLINK-35754,2025-294AA,2026-06-10T11:55:57.464832,15.27603389,.00006862,42.9998,233.8818,272.0760,88.0013,0,U,67054,999,2899,.8036218E-3,.21933E-3,0
STARLINK-35790,2025-294AB,2026-06-10T13:56:01.178016,15.27594690,.00015151,43.0008,233.6500,267.6920,92.3758,0,U,67055,999,2900,.61204981E-3,.16626E-3,0
STARLINK-36143,2025-294AC,2026-06-10T11:48:33.789600,15.27594080,.00005116,43.0074,233.8453,253.8359,106.2436,0,U,67056,999,2899,.66675228E-3,.18138E-3,0
STARLINK-36141,2025-294AD,2026-06-09T21:35:35.750112,15.27610221,.00024257,42.9949,237.1329,287.0936,72.9650,0,U,67057,999,2890,.84553414E-3,.23101E-3,0
STARLINK-35767,2025-294AE,2026-06-09T22:25:32.817504,15.27612556,.00040039,43.0019,237.4021,266.3278,93.7116,0,U,67058,999,2890,.69199407E-3,.1885E-3,0
HULIANWANG DIGUI-119,2025-295A,2026-06-10T09:22:13.316160,13.29328824,.00009752,50.0044,50.1594,57.8102,302.2865,0,U,67059,999,2459,.55534866E-4,-.98E-6,0
HULIANWANG DIGUI-120,2025-295B,2026-06-10T08:58:10.024032,13.29328722,.00009722,50.0050,50.0810,60.6639,299.4330,0,U,67060,999,2459,.66836094E-4,-.93E-6,0
HULIANWANG DIGUI-121,2025-295C,2026-06-10T09:10:11.910720,13.29328477,.00009663,50.0010,50.0609,58.3339,301.7627,0,U,67061,999,2459,.55739876E-4,-.98E-6,0
HULIANWANG DIGUI-122,2025-295D,2026-06-10T08:46:01.742016,13.29330187,.00009544,50.0045,50.0287,58.1298,301.9667,0,U,67062,999,2459,.69522779E-4,-.92E-6,0
HULIANWANG DIGUI-123,2025-295E,2026-06-10T10:22:18.092640,13.29329789,.00009513,50.0044,49.7194,58.7865,301.3100,0,U,67063,999,2460,.85333626E-4,-.84E-6,0
HULIANWANG DIGUI-124,2025-295F,2026-06-10T10:10:27.728256,13.29326997,.00009694,50.0006,49.6085,60.4157,299.6812,0,U,67064,999,2460,.7839269E-4,-.88E-6,0
HULIANWANG DIGUI-125,2025-295G,2026-06-09T23:08:48.912000,13.29327622,.00009529,49.9996,51.1686,56.2403,303.8560,0,U,67065,999,2454,.8555718E-4,-.84E-6,0
HULIANWANG DIGUI-126,2025-295H,2026-06-10T09:46:14.888064,13.29328792,.00010524,50.0001,49.5103,58.4169,301.6806,0,U,67066,999,2460,.63242277E-4,-.95E-6,0
